HERMES-1                
1 63242U 25052AJ  26068.69342910  .00006601  00000+0  30413-3 0  9993
2 63242  97.4020 322.1122 0007734 159.5432 200.6114 15.20586525 54679
TRANSPORTER-15 OBJECT CN
1 66750U 25276CN  26068.19135815  .00005857  00000+0  28330-3 0  9994
2 66750  97.4304 143.5648 0000507 336.0158  24.1053 15.18977527 15241
